UFO 2 (USA 95)          
1 22787U 93056A   21105.88035586  .00000130  00000-0  00000-0 0  9995
2 22787  11.3653  13.5383 0002582 301.5580 234.8210  1.00268332 99619
